LEMUR-2-MYRA            
1 66787U 25276EC  26198.93707579  .00003229  00000+0  25929-3 0  9994
2 66787  97.5220 268.8162 0018658  45.9509 314.3249 15.00607233 34824
LEMUR-2 FIKRETDENGIZ    
1 67363U 26004A   26198.92385804  .00001904  00000+0  21047-3 0  9992
2 67363  97.8030 197.0152 0009997  48.1106 312.0962 14.88527399 27854
TWILIGHT-1 OBJECT B     
1 67364U 26004B   26198.82782279  .00000863  00000+0  10040-3 0  9993
2 67364  97.8076 196.9200 0009551  38.2164 321.9728 14.87798342 27842
LEMUR-2-MARIO-SOUSA     
1 67365U 26004C   26198.43284725  .00001948  00000+0  21412-3 0  9994
2 67365  97.8002 196.5266 0009683  50.9541 309.2536 14.88737833 27795
LEMUR-2-SONNENBLUME     
1 67367U 26004E   26198.97391390  .00001306  00000+0  14651-3 0  9997
2 67367  97.8002 197.0309 0009249  50.4345 309.7687 14.88461180 27876
LEMUR-2-WOBLER          
1 67368U 26004F   26198.89552939  .00001811  00000+0  19962-3 0  9998
2 67368  97.8053 197.1077 0009304  42.2409 317.9523 14.88708930 27864
LEMUR-2-GRAM-E-SUE      
1 67370U 26004H   26198.95508066  .00001203  00000+0  13503-3 0  9990
2 67370  97.7987 197.0289 0008427  53.4953 306.7039 14.88596349 27877
LEMUR-2-KATIE           
1 67387U 26004AA  26198.90896297  .00002003  00000+0  21208-3 0  9999
2 67387  97.8046 197.5442 0003233  27.6073 332.5316 14.90264381 27881
LEMUR-2-HCS-BAZUS       
1 67388U 26004AB  26198.90730122  .00001607  00000+0  17124-3 0  9995
2 67388  97.8038 197.5205 0002768  27.7831 332.3535 14.90272361 27883
