{"fetched_at":"2026-07-18T06:27:50.593Z","source":"https://celestrak.org/NORAD/elements/gp.php?GROUP=spire&FORMAT=JSON","constellation":"spire","records":[{"OBJECT_NAME":"LEMUR-2-MYRA","OBJECT_ID":"2025-276EC","EPOCH":"2026-07-17T22:29:23.348256","CLASSIFICATION_TYPE":"U","MEAN_MOTION":15.00607233,"ECCENTRICITY":0.00186583,"INCLINATION":97.522,"RA_OF_ASC_NODE":268.8162,"ARG_OF_PERICENTER":45.9509,"MEAN_ANOMALY":314.3249,"EPHEMERIS_TYPE":0,"NORAD_CAT_ID":66787,"ELEMENT_SET_NO":999,"REV_AT_EPOCH":3482,"BSTAR":0.00025928547,"MEAN_MOTION_DOT":0.00003229,"MEAN_MOTION_DDOT":0},{"OBJECT_NAME":"LEMUR-2 FIKRETDENGIZ","OBJECT_ID":"2026-004A","EPOCH":"2026-07-17T22:10:21.334656","CLASSIFICATION_TYPE":"U","MEAN_MOTION":14.88527399,"ECCENTRICITY":0.00099979,"INCLINATION":97.803,"RA_OF_ASC_NODE":197.0152,"ARG_OF_PERICENTER":48.1106,"MEAN_ANOMALY":312.0962,"EPHEMERIS_TYPE":0,"NORAD_CAT_ID":67363,"ELEMENT_SET_NO":999,"REV_AT_EPOCH":2785,"BSTAR":0.00021046984,"MEAN_MOTION_DOT":0.00001904,"MEAN_MOTION_DDOT":0},{"OBJECT_NAME":"TWILIGHT-1 OBJECT B","OBJECT_ID":"2026-004B","EPOCH":"2026-07-17T19:52:03.889056","CLASSIFICATION_TYPE":"U","MEAN_MOTION":14.87798342,"ECCENTRICITY":0.0009551,"INCLINATION":97.8076,"RA_OF_ASC_NODE":196.92,"ARG_OF_PERICENTER":38.2164,"MEAN_ANOMALY":321.9728,"EPHEMERIS_TYPE":0,"NORAD_CAT_ID":67364,"ELEMENT_SET_NO":999,"REV_AT_EPOCH":2784,"BSTAR":0.00010039728,"MEAN_MOTION_DOT":0.00000863,"MEAN_MOTION_DDOT":0},{"OBJECT_NAME":"LEMUR-2-MARIO-SOUSA","OBJECT_ID":"2026-004C","EPOCH":"2026-07-17T10:23:18.002400","CLASSIFICATION_TYPE":"U","MEAN_MOTION":14.88737833,"ECCENTRICITY":0.0009683,"INCLINATION":97.8002,"RA_OF_ASC_NODE":196.5266,"ARG_OF_PERICENTER":50.9541,"MEAN_ANOMALY":309.2536,"EPHEMERIS_TYPE":0,"NORAD_CAT_ID":67365,"ELEMENT_SET_NO":999,"REV_AT_EPOCH":2779,"BSTAR":0.00021412,"MEAN_MOTION_DOT":0.00001948,"MEAN_MOTION_DDOT":0},{"OBJECT_NAME":"LEMUR-2-SONNENBLUME","OBJECT_ID":"2026-004E","EPOCH":"2026-07-17T23:22:26.160960","CLASSIFICATION_TYPE":"U","MEAN_MOTION":14.8846118,"ECCENTRICITY":0.00092491,"INCLINATION":97.8002,"RA_OF_ASC_NODE":197.0309,"ARG_OF_PERICENTER":50.4345,"MEAN_ANOMALY":309.7687,"EPHEMERIS_TYPE":0,"NORAD_CAT_ID":67367,"ELEMENT_SET_NO":999,"REV_AT_EPOCH":2787,"BSTAR":0.00014650995,"MEAN_MOTION_DOT":0.00001306,"MEAN_MOTION_DDOT":0},{"OBJECT_NAME":"LEMUR-2-WOBLER","OBJECT_ID":"2026-004F","EPOCH":"2026-07-17T21:29:33.739296","CLASSIFICATION_TYPE":"U","MEAN_MOTION":14.8870893,"ECCENTRICITY":0.00093043,"INCLINATION":97.8053,"RA_OF_ASC_NODE":197.1077,"ARG_OF_PERICENTER":42.2409,"MEAN_ANOMALY":317.9523,"EPHEMERIS_TYPE":0,"NORAD_CAT_ID":67368,"ELEMENT_SET_NO":999,"REV_AT_EPOCH":2786,"BSTAR":0.0001996178,"MEAN_MOTION_DOT":0.00001811,"MEAN_MOTION_DDOT":0},{"OBJECT_NAME":"LEMUR-2-GRAM-E-SUE","OBJECT_ID":"2026-004H","EPOCH":"2026-07-17T22:55:18.969024","CLASSIFICATION_TYPE":"U","MEAN_MOTION":14.88596349,"ECCENTRICITY":0.00084278,"INCLINATION":97.7987,"RA_OF_ASC_NODE":197.0289,"ARG_OF_PERICENTER":53.4953,"MEAN_ANOMALY":306.7039,"EPHEMERIS_TYPE":0,"NORAD_CAT_ID":67370,"ELEMENT_SET_NO":999,"REV_AT_EPOCH":2787,"BSTAR":0.00013503143,"MEAN_MOTION_DOT":0.00001203,"MEAN_MOTION_DDOT":0},{"OBJECT_NAME":"LEMUR-2-KATIE","OBJECT_ID":"2026-004AA","EPOCH":"2026-07-17T21:48:54.400608","CLASSIFICATION_TYPE":"U","MEAN_MOTION":14.90264381,"ECCENTRICITY":0.00032338,"INCLINATION":97.8046,"RA_OF_ASC_NODE":197.5442,"ARG_OF_PERICENTER":27.6073,"MEAN_ANOMALY":332.5316,"EPHEMERIS_TYPE":0,"NORAD_CAT_ID":67387,"ELEMENT_SET_NO":999,"REV_AT_EPOCH":2788,"BSTAR":0.00021208136,"MEAN_MOTION_DOT":0.00002003,"MEAN_MOTION_DDOT":0},{"OBJECT_NAME":"LEMUR-2-HCS-BAZUS","OBJECT_ID":"2026-004AB","EPOCH":"2026-07-17T21:46:30.825408","CLASSIFICATION_TYPE":"U","MEAN_MOTION":14.90272361,"ECCENTRICITY":0.00027684,"INCLINATION":97.8038,"RA_OF_ASC_NODE":197.5205,"ARG_OF_PERICENTER":27.7831,"MEAN_ANOMALY":332.3535,"EPHEMERIS_TYPE":0,"NORAD_CAT_ID":67388,"ELEMENT_SET_NO":999,"REV_AT_EPOCH":2788,"BSTAR":0.0001712425,"MEAN_MOTION_DOT":0.00001607,"MEAN_MOTION_DDOT":0}]}
